{
  "type": "FeatureCollection",
  "features": [
    {
      "type": "Feature",
      "properties": {
        "norad_id": 30683,
        "name": "FENGYUN 1C DEB",
        "group": "fengyun-1c-debris",
        "lat": -34.26641321473031,
        "lon": 177.1403549374096,
        "alt_km": 798.2366917780573,
        "timestamp": "2025-12-17T23:38:07.132082+00:00",
        "meta_object_name": "FENGYUN 1C DEB",
        "meta_object_id": "1999-025AQR",
        "meta_epoch": "2025-12-17T13:07:50.712672",
        "meta_mean_motion": 14.00404084,
        "meta_eccentricity": 0.01382979,
        "meta_inclination": 99.427,
        "meta_ra_of_asc_node": 3.1883,
        "meta_arg_of_pericenter": 211.4622,
        "meta_mean_anomaly": 317.7166,
        "meta_ephemeris_type": 0,
        "meta_classification_type": "U",
        "meta_norad_cat_id": 30683,
        "meta_element_set_no": 999,
        "meta_rev_at_epoch": 95618,
        "meta_bstar": 0.00092029898,
        "meta_mean_motion_dot": 1.434e-05,
        "meta_mean_motion_ddot": 0,
        "tle_line1": "1 30683U 99025AQR 25351.54711473  .00001434  00000+0  92030-3 0  9991",
        "tle_line2": "2 30683  99.4270   3.1883 0138297 211.4622 317.7166 14.00404084956189"
      },
      "geometry": {
        "type": "Point",
        "coordinates": [
          177.1403549374096,
          -34.26641321473031
        ]
      }
    },
    {
      "type": "Feature",
      "properties": {
        "norad_id": 30684,
        "name": "FENGYUN 1C DEB",
        "group": "fengyun-1c-debris",
        "lat": 64.51367274555896,
        "lon": -126.06357608067478,
        "alt_km": 1140.326938507479,
        "timestamp": "2025-12-17T23:38:07.132092+00:00",
        "meta_object_name": "FENGYUN 1C DEB",
        "meta_object_id": "1999-025AQS",
        "meta_epoch": "2025-12-17T01:58:40.709568",
        "meta_mean_motion": 13.66814682,
        "meta_eccentricity": 0.02353573,
        "meta_inclination": 99.5312,
        "meta_ra_of_asc_node": 32.4102,
        "meta_arg_of_pericenter": 258.1193,
        "meta_mean_anomaly": 99.3473,
        "meta_ephemeris_type": 0,
        "meta_classification_type": "U",
        "meta_norad_cat_id": 30684,
        "meta_element_set_no": 999,
        "meta_rev_at_epoch": 93688,
        "meta_bstar": 0.00098271621,
        "meta_mean_motion_dot": 9.45e-06,
        "meta_mean_motion_ddot": 0,
        "tle_line1": "1 30684U 99025AQS 25351.08241562  .00000945  00000+0  98272-3 0  9998",
        "tle_line2": "2 30684  99.5312  32.4102 0235357 258.1193  99.3473 13.66814682936882"
      },
      "geometry": {
        "type": "Point",
        "coordinates": [
          -126.06357608067478,
          64.51367274555896
        ]
      }
    },
    {
      "type": "Feature",
      "properties": {
        "norad_id": 30686,
        "name": "FENGYUN 1C DEB",
        "group": "fengyun-1c-debris",
        "lat": -79.23494611986374,
        "lon": -116.73083917803237,
        "alt_km": 756.0130472792971,
        "timestamp": "2025-12-17T23:38:07.132102+00:00",
        "meta_object_name": "FENGYUN 1C DEB",
        "meta_object_id": "1999-025AQU",
        "meta_epoch": "2025-12-17T06:20:54.903840",
        "meta_mean_motion": 14.73926676,
        "meta_eccentricity": 0.01441331,
        "meta_inclination": 99.0327,
        "meta_ra_of_asc_node": 185.6763,
        "meta_arg_of_pericenter": 106.5852,
        "meta_mean_anomaly": 309.3833,
        "meta_ephemeris_type": 0,
        "meta_classification_type": "U",
        "meta_norad_cat_id": 30686,
        "meta_element_set_no": 999,
        "meta_rev_at_epoch": 99668,
        "meta_bstar": 0.00051147104,
        "meta_mean_motion_dot": 3.896e-05,
        "meta_mean_motion_ddot": 0,
        "tle_line1": "1 30686U 99025AQU 25351.26452435  .00003896  00000+0  51147-3 0  9991",
        "tle_line2": "2 30686  99.0327 185.6763 0144133 106.5852 309.3833 14.73926676996682"
      },
      "geometry": {
        "type": "Point",
        "coordinates": [
          -116.73083917803237,
          -79.23494611986374
        ]
      }
    },
    {
      "type": "Feature",
      "properties": {
        "norad_id": 30688,
        "name": "FENGYUN 1C DEB",
        "group": "fengyun-1c-debris",
        "lat": 5.536770243084172,
        "lon": -113.7675055284386,
        "alt_km": 791.0537497430296,
        "timestamp": "2025-12-17T23:38:07.132114+00:00",
        "meta_object_name": "FENGYUN 1C DEB",
        "meta_object_id": "1999-025AQW",
        "meta_epoch": "2025-12-17T11:09:52.022016",
        "meta_mean_motion": 14.32737287,
        "meta_eccentricity": 0.0015461,
        "meta_inclination": 98.702,
        "meta_ra_of_asc_node": 64.8602,
        "meta_arg_of_pericenter": 300.4847,
        "meta_mean_anomaly": 75.3475,
        "meta_ephemeris_type": 0,
        "meta_classification_type": "U",
        "meta_norad_cat_id": 30688,
        "meta_element_set_no": 999,
        "meta_rev_at_epoch": 97328,
        "meta_bstar": 0.0012695541,
        "meta_mean_motion_dot": 3.417e-05,
        "meta_mean_motion_ddot": 0,
        "tle_line1": "1 30688U 99025AQW 25351.46518544  .00003417  00000+0  12696-2 0  9993",
        "tle_line2": "2 30688  98.7020  64.8602 0015461 300.4847  75.3475 14.32737287973286"
      },
      "geometry": {
        "type": "Point",
        "coordinates": [
          -113.7675055284386,
          5.536770243084172
        ]
      }
    },
    {
      "type": "Feature",
      "properties": {
        "norad_id": 30689,
        "name": "FENGYUN 1C DEB",
        "group": "fengyun-1c-debris",
        "lat": 43.85179895477732,
        "lon": 166.53383690192766,
        "alt_km": 793.8306524058962,
        "timestamp": "2025-12-17T23:38:07.132139+00:00",
        "meta_object_name": "FENGYUN 1C DEB",
        "meta_object_id": "1999-025AQX",
        "meta_epoch": "2025-12-17T11:40:40.390176",
        "meta_mean_motion": 14.11774167,
        "meta_eccentricity": 0.01118115,
        "meta_inclination": 98.7082,
        "meta_ra_of_asc_node": 337.583,
        "meta_arg_of_pericenter": 89.939,
        "meta_mean_anomaly": 33.7921,
        "meta_ephemeris_type": 0,
        "meta_classification_type": "U",
        "meta_norad_cat_id": 30689,
        "meta_element_set_no": 999,
        "meta_rev_at_epoch": 96957,
        "meta_bstar": 0.00035622109,
        "meta_mean_motion_dot": 6.47e-06,
        "meta_mean_motion_ddot": 0,
        "tle_line1": "1 30689U 99025AQX 25351.48657859  .00000647  00000+0  35622-3 0  9996",
        "tle_line2": "2 30689  98.7082 337.5830 0111811  89.9390  33.7921 14.11774167969572"
      },
      "geometry": {
        "type": "Point",
        "coordinates": [
          166.53383690192766,
          43.85179895477732
        ]
      }
    },
    {
      "type": "Feature",
      "properties": {
        "norad_id": 30690,
        "name": "FENGYUN 1C DEB",
        "group": "fengyun-1c-debris",
        "lat": 2.609873337134521,
        "lon": -78.01410647685111,
        "alt_km": 848.2366201410559,
        "timestamp": "2025-12-17T23:38:07.132150+00:00",
        "meta_object_name": "FENGYUN 1C DEB",
        "meta_object_id": "1999-025AQY",
        "meta_epoch": "2025-12-17T11:55:18.388704",
        "meta_mean_motion": 14.0234499,
        "meta_eccentricity": 0.01050832,
        "meta_inclination": 99.1591,
        "meta_ra_of_asc_node": 281.9168,
        "meta_arg_of_pericenter": 63.048,
        "meta_mean_anomaly": 358.1213,
        "meta_ephemeris_type": 0,
        "meta_classification_type": "U",
        "meta_norad_cat_id": 30690,
        "meta_element_set_no": 999,
        "meta_rev_at_epoch": 95774,
        "meta_bstar": 0.0011086537,
        "meta_mean_motion_dot": 1.741e-05,
        "meta_mean_motion_ddot": 0,
        "tle_line1": "1 30690U 99025AQY 25351.49674061  .00001741  00000+0  11087-2 0  9997",
        "tle_line2": "2 30690  99.1591 281.9168 0105083  63.0480 358.1213 14.02344990957748"
      },
      "geometry": {
        "type": "Point",
        "coordinates": [
          -78.01410647685111,
          2.609873337134521
        ]
      }
    },
    {
      "type": "Feature",
      "properties": {
        "norad_id": 30691,
        "name": "FENGYUN 1C DEB",
        "group": "fengyun-1c-debris",
        "lat": 63.2496146807168,
        "lon": -159.15005856298754,
        "alt_km": 946.6578138036348,
        "timestamp": "2025-12-17T23:38:07.132161+00:00",
        "meta_object_name": "FENGYUN 1C DEB",
        "meta_object_id": "1999-025AQZ",
        "meta_epoch": "2025-12-17T13:19:55.191360",
        "meta_mean_motion": 13.89447943,
        "meta_eccentricity": 0.01394004,
        "meta_inclination": 98.7423,
        "meta_ra_of_asc_node": 2.6722,
        "meta_arg_of_pericenter": 219.93,
        "meta_mean_anomaly": 270.7476,
        "meta_ephemeris_type": 0,
        "meta_classification_type": "U",
        "meta_norad_cat_id": 30691,
        "meta_element_set_no": 999,
        "meta_rev_at_epoch": 95183,
        "meta_bstar": 0.0010827684,
        "meta_mean_motion_dot": 1.388e-05,
        "meta_mean_motion_ddot": 0,
        "tle_line1": "1 30691U 99025AQZ 25351.55549990  .00001388  00000+0  10828-2 0  9996",
        "tle_line2": "2 30691  98.7423   2.6722 0139400 219.9300 270.7476 13.89447943951835"
      },
      "geometry": {
        "type": "Point",
        "coordinates": [
          -159.15005856298754,
          63.2496146807168
        ]
      }
    }
  ]
}